SL-3 R/B                
1 19046U 88032B   26089.20588000  .00006384  00000+0  29574-3 0  9999
2 19046  97.5210  72.3907 0026520 158.5126 201.7228 15.20135128 55221
SL-16 R/B               
1 19120U 88039B   26089.06214482  .00000157  00000+0  96864-4 0  9992
2 19120  71.0170  25.4689 0023682 305.1758  54.7148 14.19619563961274
COSMOS 1953             
1 19210U 88050A   26089.11387981  .00008958  00000+0  31782-3 0  9990
2 19210  82.5080 137.7015 0012260  58.8857 301.3583 15.28841804 40901
SL-8 R/B                
1 19257U 88053B   26089.10020969  .00000422  00000+0  14508-3 0  9998
2 19257  74.0457  74.8396 0021448 251.3997 187.8996 14.38930512979532
COSMOS 1975             
1 19573U 88093A   26089.08857195  .00009968  00000+0  35896-3 0  9996
2 19573  82.5159  97.1986 0013393  98.6469 261.6288 15.28350397 22525
SL-14 R/B               
1 19574U 88093B   26089.21452729  .00000679  00000+0  75331-4 0  9995
2 19574  82.5340  22.7797 0019995 334.3417 140.7184 14.85681207  4069
SL-16 R/B               
1 19650U 88102B   26089.10647689 -.00000040  00000+0  40309-5 0  9991
2 19650  70.9970 108.5377 0015177 331.2496  28.7789 14.16153513929781
INTERCOSMOS 24          
1 20261U 89080A   26089.05772500  .00000632  00000+0  18702-3 0  9998
2 20261  82.6011  91.1363 1186887 245.5015 101.7937 12.59584297669365
SL-14 R/B               
1 20262U 89080C   26089.20054154  .00000444  00000+0  12501-3 0  9996
2 20262  82.5953 160.0249 1230897 137.8897 232.3730 12.50513554662714
DELTA 1 R/B             
1 20323U 89089B   26089.17548712  .00000437  00000+0  11650-3 0  9993
2 20323  97.0690 293.3532 0070441  58.5324 302.2734 14.50680034898707
ARIANE 40 R/B           
1 20443U 90005H   26089.10484389  .00000330  00000+0  11852-3 0  9994
2 20443  98.3040 149.1538 0011045 139.0310 221.1711 14.39883924895747
DELTA 2 R/B(1)          
1 20453U 90008B   26089.20988780  .00085338  00000+0  91956-3 0  9997
2 20453  35.6037  39.9125 0077381  91.1577 269.8026 15.58726661929331
